start=new Date('2022-03-16T00:00:00.000Z').valueOf();
sats=[{"NORAD_CAT_ID":"45047","REV_AT_EPOCH":"11712","BSTAR":"0.00068403000000","LAUNCH_DATE":"2020-01-29","ECCENTRICITY":"0.00016010","RCS_SIZE":"LARGE","GP_ID":"198846024","MEAN_MOTION":"15.06421335","REF_FRAME":"TEME","EPOCH":"2022-03-15T10:58:38.803584","MEAN_ELEMENT_THEORY":"SGP4","PERIAPSIS":"546.039","MEAN_MOTION_DDOT":"0.0000000000000","COUNTRY_CODE":"US","OBJECT_TYPE":"PAYLOAD","TIME_SYSTEM":"UTC","INCLINATION":"53.0549","CLASSIFICATION_TYPE":"U","TLE_LINE1":"1 45047U 20006D   22074.45739356  .00009928  00000-0  68403-3 0  9997","PERIOD":"95.591","TLE_LINE2":"2 45047  53.0549 339.4154 0001601  66.2442 293.8714 15.06421335117125","SITE":"AFETR","FILE":"3360930","OBJECT_NAME":"STARLINK-1131","EPHEMERIS_TYPE":"0","ELEMENT_SET_NO":"999","APOAPSIS":"548.257","MEAN_MOTION_DOT":"0.00009928","OBJECT_ID":"2020-006D","CENTER_NAME":"EARTH","SEMIMAJOR_AXIS":"6925.283","DECAY_DATE":null,"ARG_OF_PERICENTER":"66.2442","MEAN_ANOMALY":"293.8714","RA_OF_ASC_NODE":"339.4154"},{"ARG_OF_PERICENTER":"71.0228","MEAN_ANOMALY":"289.0931","RA_OF_ASC_NODE":"337.5843","SEMIMAJOR_AXIS":"6925.426","DECAY_DATE":null,"APOAPSIS":"548.379","MEAN_MOTION_DOT":"-0.00016155","OBJECT_ID":"2020-006E","CENTER_NAME":"EARTH","TLE_LINE1":"1 45048U 20006E   22074.86283954 -.00016155  00000-0 -10688-2 0  9994","SITE":"AFETR","TLE_LINE2":"2 45048  53.0548 337.5843 0001571  71.0228 289.0931 15.06374608117185","PERIOD":"95.594","ELEMENT_SET_NO":"999","OBJECT_NAME":"STARLINK-1134","FILE":"3360930","EPHEMERIS_TYPE":"0","CLASSIFICATION_TYPE":"U","TIME_SYSTEM":"UTC","OBJECT_TYPE":"PAYLOAD","INCLINATION":"53.0548","PERIAPSIS":"546.203","MEAN_ELEMENT_THEORY":"SGP4","EPOCH":"2022-03-15T20:42:29.336256","MEAN_MOTION_DDOT":"0.0000000000000","COUNTRY_CODE":"US","NORAD_CAT_ID":"45048","REV_AT_EPOCH":"11718","LAUNCH_DATE":"2020-01-29","BSTAR":"-0.00106880000000","GP_ID":"198844775","MEAN_MOTION":"15.06374608","REF_FRAME":"TEME","RCS_SIZE":"LARGE","ECCENTRICITY":"0.00015710"},{"CLASSIFICATION_TYPE":"U","OBJECT_TYPE":"PAYLOAD","TIME_SYSTEM":"UTC","INCLINATION":"53.0557","EPOCH":"2022-03-15T10:59:08.067264","MEAN_ELEMENT_THEORY":"SGP4","PERIAPSIS":"542.370","MEAN_MOTION_DDOT":"0.0000000000000","COUNTRY_CODE":"US","NORAD_CAT_ID":"45049","REV_AT_EPOCH":"11712","BSTAR":"0.00089932000000","LAUNCH_DATE":"2020-01-29","ECCENTRICITY":"0.00028750","RCS_SIZE":"LARGE","MEAN_MOTION":"15.07331563","GP_ID":"198845025","REF_FRAME":"TEME","ARG_OF_PERICENTER":"87.3459","MEAN_ANOMALY":"272.7859","RA_OF_ASC_NODE":"339.3060","SEMIMAJOR_AXIS":"6922.495","DECAY_DATE":null,"APOAPSIS":"546.350","MEAN_MOTION_DOT":"0.00013480","OBJECT_ID":"2020-006F","CENTER_NAME":"EARTH","TLE_LINE1":"1 45049U 20006F   22074.45773226  .00013480  00000-0  89932-3 0  9991","PERIOD":"95.533","TLE_LINE2":"2 45049  53.0557 339.3060 0002875  87.3459 272.7859 15.07331563117127","SITE":"AFETR","EPHEMERIS_TYPE":"0","FILE":"3360930","OBJECT_NAME":"STARLINK-1135","ELEMENT_SET_NO":"999"},{"OBJECT_ID":"2020-006G","CENTER_NAME":"EARTH","APOAPSIS":"548.451","MEAN_MOTION_DOT":"0.00002731","TLE_LINE2":"2 45050  53.0548 337.5375 0001816  65.2139 294.9039 15.06406523117182","PERIOD":"95.592","SITE":"AFETR","FILE":"3360930","EPHEMERIS_TYPE":"0","OBJECT_NAME":"STARLINK-1140","ELEMENT_SET_NO":"999","TLE_LINE1":"1 45050U 20006G   22074.87390202  .00002731  00000-0  20212-3 0  9991","MEAN_ANOMALY":"294.9039","RA_OF_ASC_NODE":"337.5375","ARG_OF_PERICENTER":"65.2139","DECAY_DATE":null,"SEMIMAJOR_AXIS":"6925.329","MEAN_MOTION_DDOT":"0.0000000000000","COUNTRY_CODE":"US","EPOCH":"2022-03-15T20:58:25.134528","MEAN_ELEMENT_THEORY":"SGP4","PERIAPSIS":"545.936","BSTAR":"0.00020212000000","LAUNCH_DATE":"2020-01-29","ECCENTRICITY":"0.00018160","RCS_SIZE":"LARGE","GP_ID":"198845775","MEAN_MOTION":"15.06406523","REF_FRAME":"TEME","NORAD_CAT_ID":"45050","REV_AT_EPOCH":"11718","CLASSIFICATION_TYPE":"U","OBJECT_TYPE":"PAYLOAD","TIME_SYSTEM":"UTC","INCLINATION":"53.0548"},{"GP_ID":"198845525","MEAN_MOTION":"15.09034144","REF_FRAME":"TEME","RCS_SIZE":"LARGE","ECCENTRICITY":"0.00019710","LAUNCH_DATE":"2020-01-29","BSTAR":"0.00081679000000","REV_AT_EPOCH":"11720","NORAD_CAT_ID":"45051","COUNTRY_CODE":"US","MEAN_MOTION_DDOT":"0.0000000000000","MEAN_ELEMENT_THEORY":"SGP4","PERIAPSIS":"537.789","EPOCH":"2022-03-15T21:24:40.967712","INCLINATION":"53.0537","TIME_SYSTEM":"UTC","OBJECT_TYPE":"PAYLOAD","CLASSIFICATION_TYPE":"U","ELEMENT_SET_NO":"999","FILE":"3360930","EPHEMERIS_TYPE":"0","OBJECT_NAME":"STARLINK-1141","SITE":"AFETR","TLE_LINE2":"2 45051  53.0537 336.2779 0001971 111.6308 248.4892 15.09034144117204","PERIOD":"95.425","TLE_LINE1":"1 45051U 20006H   22074.89214083  .00012805  00000-0  81679-3 0  9993","CENTER_NAME":"EARTH","OBJECT_ID":"2020-006H","MEAN_MOTION_DOT":"0.00012805","APOAPSIS":"540.515","DECAY_DATE":null,"SEMIMAJOR_AXIS":"6917.287","RA_OF_ASC_NODE":"336.2779","MEAN_ANOMALY":"248.4892","ARG_OF_PERICENTER":"111.6308"},{"EPOCH":"2022-03-15T21:09:03.325536","MEAN_ELEMENT_THEORY":"SGP4","PERIAPSIS":"546.106","COUNTRY_CODE":"US","MEAN_MOTION_DDOT":"0.0000000000000","REV_AT_EPOCH":"11718","NORAD_CAT_ID":"45052","ECCENTRICITY":"0.00016280","RCS_SIZE":"LARGE","GP_ID":"198844276","REF_FRAME":"TEME","MEAN_MOTION":"15.06393385","BSTAR":"0.00002489400000","LAUNCH_DATE":"2020-01-29","CLASSIFICATION_TYPE":"U","INCLINATION":"53.0551","OBJECT_TYPE":"PAYLOAD","TIME_SYSTEM":"UTC","MEAN_MOTION_DOT":"0.00000089","APOAPSIS":"548.361","CENTER_NAME":"EARTH","OBJECT_ID":"2020-006J","TLE_LINE1":"1 45052U 20006J   22074.88128849  .00000089  00000-0  24894-4 0  9995","FILE":"3360930","EPHEMERIS_TYPE":"0","OBJECT_NAME":"STARLINK-1148","ELEMENT_SET_NO":"999","TLE_LINE2":"2 45052  53.0551 337.5060 0001628  69.8914 290.2250 15.06393385117186","PERIOD":"95.593","SITE":"AFETR","ARG_OF_PERICENTER":"69.8914","RA_OF_ASC_NODE":"337.5060","MEAN_ANOMALY":"290.2250","SEMIMAJOR_AXIS":"6925.369","DECAY_DATE":null},{"RA_OF_ASC_NODE":"333.3138","MEAN_ANOMALY":"277.8446","ARG_OF_PERICENTER":"82.2659","DECAY_DATE":null,"SEMIMAJOR_AXIS":"6915.019","CENTER_NAME":"EARTH","OBJECT_ID":"2020-006K","MEAN_MOTION_DOT":"0.00017108","APOAPSIS":"537.587","EPHEMERIS_TYPE":"0","FILE":"3360930","OBJECT_NAME":"STARLINK-1155","ELEMENT_SET_NO":"999","PERIOD":"95.378","TLE_LINE2":"2 45053  53.0025 333.3138 0001016  82.2659 277.8446 15.09776614117214","SITE":"AFETR","TLE_LINE1":"1 45053U 20006K   22074.85900479  .00017108  00000-0  10628-2 0  9998","CLASSIFICATION_TYPE":"U","INCLINATION":"53.0025","OBJECT_TYPE":"PAYLOAD","TIME_SYSTEM":"UTC","COUNTRY_CODE":"US","MEAN_MOTION_DDOT":"0.0000000000000","EPOCH":"2022-03-15T20:36:58.013856","MEAN_ELEMENT_THEORY":"SGP4","PERIAPSIS":"536.181","RCS_SIZE":"LARGE","ECCENTRICITY":"0.00010160","GP_ID":"198844526","MEAN_MOTION":"15.09776614","REF_FRAME":"TEME","BSTAR":"0.00106280000000","LAUNCH_DATE":"2020-01-29","REV_AT_EPOCH":"11721","NORAD_CAT_ID":"45053"},{"CLASSIFICATION_TYPE":"U","OBJECT_TYPE":"PAYLOAD","TIME_SYSTEM":"UTC","INCLINATION":"53.0547","MEAN_MOTION_DDOT":"0.0000000000000","COUNTRY_CODE":"US","EPOCH":"2022-03-15T21:03:44.430048","PERIAPSIS":"546.313","MEAN_ELEMENT_THEORY":"SGP4","BSTAR":"0.00044682000000","LAUNCH_DATE":"2020-01-29","RCS_SIZE":"LARGE","ECCENTRICITY":"0.00012590","GP_ID":"198845276","MEAN_MOTION":"15.06409504","REF_FRAME":"TEME","NORAD_CAT_ID":"45054","REV_AT_EPOCH":"11718","MEAN_ANOMALY":"285.5169","RA_OF_ASC_NODE":"337.5388","ARG_OF_PERICENTER":"74.5959","DECAY_DATE":null,"SEMIMAJOR_AXIS":"6925.319","OBJECT_ID":"2020-006L","CENTER_NAME":"EARTH","APOAPSIS":"548.056","MEAN_MOTION_DOT":"0.00006382","TLE_LINE2":"2 45054  53.0547 337.5388 0001259  74.5959 285.5169 15.06409504117185","PERIOD":"95.592","SITE":"AFETR","OBJECT_NAME":"STARLINK-1156","FILE":"3360930","EPHEMERIS_TYPE":"0","ELEMENT_SET_NO":"999","TLE_LINE1":"1 45054U 20006L   22074.87759757  .00006382  00000-0  44682-3 0  9992"},{"REV_AT_EPOCH":"11719","NORAD_CAT_ID":"45057","ECCENTRICITY":"0.00014380","RCS_SIZE":"LARGE","GP_ID":"198846025","REF_FRAME":"TEME","MEAN_MOTION":"15.06373589","BSTAR":"-0.00046829000000","LAUNCH_DATE":"2020-01-29","EPOCH":"2022-03-15T21:24:58.510368","MEAN_ELEMENT_THEORY":"SGP4","PERIAPSIS":"546.299","COUNTRY_CODE":"US","MEAN_MOTION_DDOT":"0.0000000000000","INCLINATION":"53.0547","OBJECT_TYPE":"PAYLOAD","TIME_SYSTEM":"UTC","CLASSIFICATION_TYPE":"U","TLE_LINE1":"1 45057U 20006P   22074.89234387 -.00007245  00000-0 -46829-3 0  9990","OBJECT_NAME":"STARLINK-1159","FILE":"3360930","EPHEMERIS_TYPE":"0","ELEMENT_SET_NO":"999","PERIOD":"95.594","TLE_LINE2":"2 45057  53.0547 337.4458 0001438  77.2025 282.9124 15.06373589117194","SITE":"AFETR","MEAN_MOTION_DOT":"-0.00007245","APOAPSIS":"548.290","CENTER_NAME":"EARTH","OBJECT_ID":"2020-006P","SEMIMAJOR_AXIS":"6925.430","DECAY_DATE":null,"ARG_OF_PERICENTER":"77.2025","RA_OF_ASC_NODE":"337.4458","MEAN_ANOMALY":"282.9124"},{"OBJECT_ID":"2020-006Q","CENTER_NAME":"EARTH","APOAPSIS":"548.225","MEAN_MOTION_DOT":"-0.00003210","SITE":"AFETR","PERIOD":"95.592","TLE_LINE2":"2 45058  53.0541 337.4890 0001453  63.6713 296.4425 15.06398356117192","ELEMENT_SET_NO":"999","OBJECT_NAME":"STARLINK-1162","FILE":"3360930","EPHEMERIS_TYPE":"0","TLE_LINE1":"1 45058U 20006Q   22074.88496428 -.00003210  00000-0 -19671-3 0  9999","MEAN_ANOMALY":"296.4425","RA_OF_ASC_NODE":"337.4890","ARG_OF_PERICENTER":"63.6713","DECAY_DATE":null,"SEMIMAJOR_AXIS":"6925.354","MEAN_MOTION_DDOT":"0.0000000000000","COUNTRY_CODE":"US","PERIAPSIS":"546.212","MEAN_ELEMENT_THEORY":"SGP4","EPOCH":"2022-03-15T21:14:20.913792","LAUNCH_DATE":"2020-01-29","BSTAR":"-0.00019671000000","GP_ID":"198844776","REF_FRAME":"TEME","MEAN_MOTION":"15.06398356","RCS_SIZE":"LARGE","ECCENTRICITY":"0.00014530","NORAD_CAT_ID":"45058","REV_AT_EPOCH":"11719","CLASSIFICATION_TYPE":"U","TIME_SYSTEM":"UTC","OBJECT_TYPE":"PAYLOAD","INCLINATION":"53.0541"}];
